{"type": "FeatureCollection", "features": [ {"type": "Feature", "properties": {"norad_id": 33153, "name": "INTELSAT 25 (IS-25)", "group": "intelsat", "lat": 1.6355951664785884, "lon": 128.95434181184586, "alt_km": 35801.20871518853, "timestamp": "2025-12-17T04:57:44.067546+00:00", "meta": {"OBJECT_NAME": "INTELSAT 25 (IS-25)", "OBJECT_ID": "2008-034A", "EPOCH": "2025-12-16T22:03:05.126112", "MEAN_MOTION": 1.00271082, "ECCENTRICITY": 0.00048335, "INCLINATION": 2.238, "RA_OF_ASC_NODE": 82.6054, "ARG_OF_PERICENTER": 184.0182, "MEAN_ANOMALY": 118.4537, "EPHEMERIS_TYPE": 0, "CLASSIFICATION_TYPE": "U", "NORAD_CAT_ID": 33153, "ELEMENT_SET_NO": 999, "REV_AT_EPOCH": 6386, "BSTAR": 0, "MEAN_MOTION_DOT": -2.01e-06, "MEAN_MOTION_DDOT": 0}, "tle": {"line1": "1 33153U 08034A   25350.91880933 -.00000201  00000+0  00000+0 0  9998", "line2": "2 33153   2.2380  82.6054 0004833 184.0182 118.4537  1.00271082 63862"}}, "geometry": {"type": "Point", "coordinates": [128.95434181184586, 1.6355951664785884]}}, {"type": "Feature", "properties": {"norad_id": 33376, "name": "GALAXY 19 (G-19)", "group": "intelsat", "lat": 0.031359374072062705, "lon": 63.52064912200557, "alt_km": 35796.090901846226, "timestamp": "2025-12-17T04:57:44.067557+00:00", "meta": {"OBJECT_NAME": "GALAXY 19 (G-19)", "OBJECT_ID": "2008-045A", "EPOCH": "2025-12-16T16:18:59.063328", "MEAN_MOTION": 1.00271105, "ECCENTRICITY": 0.00025365, "INCLINATION": 0.0245, "RA_OF_ASC_NODE": 279.7518, "ARG_OF_PERICENTER": 347.9826, "MEAN_ANOMALY": 325.5808, "EPHEMERIS_TYPE": 0, "CLASSIFICATION_TYPE": "U", "NORAD_CAT_ID": 33376, "ELEMENT_SET_NO": 999, "REV_AT_EPOCH": 6307, "BSTAR": 0, "MEAN_MOTION_DOT": -1.15e-06, "MEAN_MOTION_DDOT": 0}, "tle": {"line1": "1 33376U 08045A   25350.67985027 -.00000115  00000+0  00000+0 0  9994", "line2": "2 33376   0.0245 279.7518 0002536 347.9826 325.5808  1.00271105 63073"}}, "geometry": {"type": "Point", "coordinates": [63.52064912200557, 0.031359374072062705]}}, {"type": "Feature", "properties": {"norad_id": 35493, "name": "FM-5", "group": "intelsat", "lat": 0.030559489524164554, "lon": 74.35613316971725, "alt_km": 35785.59423562592, "timestamp": "2025-12-17T04:57:44.067567+00:00", "meta": {"OBJECT_NAME": "FM-5", "OBJECT_ID": "2009-034A", "EPOCH": "2025-12-16T14:39:37.350144", "MEAN_MOTION": 1.00270597, "ECCENTRICITY": 8.841e-05, "INCLINATION": 0.0221, "RA_OF_ASC_NODE": 289.5649, "ARG_OF_PERICENTER": 221.602, "MEAN_ANOMALY": 68.0984, "EPHEMERIS_TYPE": 0, "CLASSIFICATION_TYPE": "U", "NORAD_CAT_ID": 35493, "ELEMENT_SET_NO": 999, "REV_AT_EPOCH": 4481, "BSTAR": 0, "MEAN_MOTION_DOT": -1.76e-06, "MEAN_MOTION_DDOT": 0}, "tle": {"line1": "1 35493U 09034A   25350.61084896 -.00000176  00000+0  00000+0 0  9990", "line2": "2 35493   0.0221 289.5649 0000884 221.6020  68.0984  1.00270597 44810"}}, "geometry": {"type": "Point", "coordinates": [74.35613316971725, 0.030559489524164554]}}, {"type": "Feature", "properties": {"norad_id": 36097, "name": "INTELSAT 14 (IS-14)", "group": "intelsat", "lat": 0.018110475231116745, "lon": 115.50973180988606, "alt_km": 35795.659115727016, "timestamp": "2025-12-17T04:57:44.067578+00:00", "meta": {"OBJECT_NAME": "INTELSAT 14 (IS-14)", "OBJECT_ID": "2009-064A", "EPOCH": "2025-12-16T16:34:05.116800", "MEAN_MOTION": 1.00272436, "ECCENTRICITY": 0.00024568, "INCLINATION": 0.0142, "RA_OF_ASC_NODE": 314.6484, "ARG_OF_PERICENTER": 319.9167, "MEAN_ANOMALY": 14.5445, "EPHEMERIS_TYPE": 0, "CLASSIFICATION_TYPE": "U", "NORAD_CAT_ID": 36097, "ELEMENT_SET_NO": 999, "REV_AT_EPOCH": 5877, "BSTAR": 0, "MEAN_MOTION_DOT": -2.49e-06, "MEAN_MOTION_DDOT": 0}, "tle": {"line1": "1 36097U 09064A   25350.69033700 -.00000249  00000+0  00000+0 0  9991", "line2": "2 36097   0.0142 314.6484 0002456 319.9167  14.5445  1.00272436 58772"}}, "geometry": {"type": "Point", "coordinates": [115.50973180988606, 0.018110475231116745]}}, {"type": "Feature", "properties": {"norad_id": 36106, "name": "INTELSAT 15 (IS-15)", "group": "intelsat", "lat": -0.04143447620839331, "lon": -114.34922132850254, "alt_km": 35778.18583431555, "timestamp": "2025-12-17T04:57:44.067589+00:00", "meta": {"OBJECT_NAME": "INTELSAT 15 (IS-15)", "OBJECT_ID": "2009-067A", "EPOCH": "2025-12-16T18:53:51.733248", "MEAN_MOTION": 1.00271772, "ECCENTRICITY": 0.00021753, "INCLINATION": 0.0165, "RA_OF_ASC_NODE": 331.1798, "ARG_OF_PERICENTER": 305.1758, "MEAN_ANOMALY": 177.9387, "EPHEMERIS_TYPE": 0, "CLASSIFICATION_TYPE": "U", "NORAD_CAT_ID": 36106, "ELEMENT_SET_NO": 999, "REV_AT_EPOCH": 3940, "BSTAR": 0, "MEAN_MOTION_DOT": -1.61e-06, "MEAN_MOTION_DDOT": 0}, "tle": {"line1": "1 36106U 09067A   25350.78740432 -.00000161  00000+0  00000+0 0  9995", "line2": "2 36106   0.0165 331.1798 0002175 305.1758 177.9387  1.00271772 39401"}}, "geometry": {"type": "Point", "coordinates": [-114.34922132850254, -0.04143447620839331]}}, {"type": "Feature", "properties": {"norad_id": 36131, "name": "DIRECTV 12", "group": "intelsat", "lat": 0.0195223390253111, "lon": 57.77990029677494, "alt_km": 35787.58173181424, "timestamp": "2025-12-17T04:57:44.067600+00:00", "meta": {"OBJECT_NAME": "DIRECTV 12", "OBJECT_ID": "2009-075A", "EPOCH": "2025-12-16T16:17:36.693888", "MEAN_MOTION": 1.00265392, "ECCENTRICITY": 7.88e-06, "INCLINATION": 0.0454, "RA_OF_ASC_NODE": 160.5616, "ARG_OF_PERICENTER": 231.7004, "MEAN_ANOMALY": 194.9906, "EPHEMERIS_TYPE": 0, "CLASSIFICATION_TYPE": "U", "NORAD_CAT_ID": 36131, "ELEMENT_SET_NO": 999, "REV_AT_EPOCH": 4472, "BSTAR": 0, "MEAN_MOTION_DOT": -7.9e-07, "MEAN_MOTION_DDOT": 0}, "tle": {"line1": "1 36131U 09075A   25350.67889692 -.00000079  00000+0  00000+0 0  9990", "line2": "2 36131   0.0454 160.5616 0000078 231.7004 194.9906  1.00265392 44729"}}, "geometry": {"type": "Point", "coordinates": [57.77990029677494, 0.0195223390253111]}}, {"type": "Feature", "properties": {"norad_id": 36397, "name": "INTELSAT 16 (IS-16)", "group": "intelsat", "lat": 0.034866714699193, "lon": 84.3115807436558, "alt_km": 35794.276710213606, "timestamp": "2025-12-17T04:57:44.067611+00:00", "meta": {"OBJECT_NAME": "INTELSAT 16 (IS-16)", "OBJECT_ID": "2010-006A", "EPOCH": "2025-12-16T20:45:50.831424", "MEAN_MOTION": 1.00271042, "ECCENTRICITY": 0.00018878, "INCLINATION": 0.0101, "RA_OF_ASC_NODE": 344.3729, "ARG_OF_PERICENTER": 285.5095, "MEAN_ANOMALY": 51.1317, "EPHEMERIS_TYPE": 0, "CLASSIFICATION_TYPE": "U", "NORAD_CAT_ID": 36397, "ELEMENT_SET_NO": 999, "REV_AT_EPOCH": 5782, "BSTAR": 0, "MEAN_MOTION_DOT": -2.2e-06, "MEAN_MOTION_DDOT": 0}, "tle": {"line1": "1 36397U 10006A   25350.86517166 -.00000220  00000+0  00000+0 0  9993", "line2": "2 36397   0.0101 344.3729 0001887 285.5095  51.1317  1.00271042 57829"}}, "geometry": {"type": "Point", "coordinates": [84.3115807436558, 0.034866714699193]}}, {"type": "Feature", "properties": {"norad_id": 37185, "name": "XM-5", "group": "intelsat", "lat": 0.06560626640775236, "lon": 45.29491102034213, "alt_km": 35787.60525843208, "timestamp": "2025-12-17T04:57:44.067621+00:00", "meta": {"OBJECT_NAME": "XM-5", "OBJECT_ID": "2010-053A", "EPOCH": "2025-12-16T16:13:59.541312", "MEAN_MOTION": 1.00270347, "ECCENTRICITY": 0.00018771, "INCLINATION": 0.0652, "RA_OF_ASC_NODE": 272.4176, "ARG_OF_PERICENTER": 231.4449, "MEAN_ANOMALY": 70.0101, "EPHEMERIS_TYPE": 0, "CLASSIFICATION_TYPE": "U", "NORAD_CAT_ID": 37185, "ELEMENT_SET_NO": 999, "REV_AT_EPOCH": 5565, "BSTAR": 0, "MEAN_MOTION_DOT": 1e-08, "MEAN_MOTION_DDOT": 0}, "tle": {"line1": "1 37185U 10053A   25350.67638358  .00000001  00000+0  00000+0 0  9993", "line2": "2 37185   0.0652 272.4176 0001877 231.4449  70.0101  1.00270347 55652"}}, "geometry": {"type": "Point", "coordinates": [45.29491102034213, 0.06560626640775236]}}, {"type": "Feature", "properties": {"norad_id": 37238, "name": "INTELSAT 17 (IS-17)", "group": "intelsat", "lat": -0.027865802713376662, "lon": -133.4970458140348, "alt_km": 35775.77127900166, "timestamp": "2025-12-17T04:57:44.067632+00:00", "meta": {"OBJECT_NAME": "INTELSAT 17 (IS-17)", "OBJECT_ID": "2010-065B", "EPOCH": "2025-12-16T19:11:20.375232", "MEAN_MOTION": 1.00275946, "ECCENTRICITY": 0.00026538, "INCLINATION": 0.0095, "RA_OF_ASC_NODE": 298.841, "ARG_OF_PERICENTER": 323.3713, "MEAN_ANOMALY": 177.3143, "EPHEMERIS_TYPE": 0, "CLASSIFICATION_TYPE": "U", "NORAD_CAT_ID": 37238, "ELEMENT_SET_NO": 999, "REV_AT_EPOCH": 5141, "BSTAR": 0, "MEAN_MOTION_DOT": 2.2e-07, "MEAN_MOTION_DDOT": 0}, "tle": {"line1": "1 37238U 10065B   25350.79954138  .00000022  00000+0  00000+0 0  9998", "line2": "2 37238   0.0095 298.8410 0002653 323.3713 177.3143  1.00275946 51410"}}, "geometry": {"type": "Point", "coordinates": [-133.4970458140348, -0.027865802713376662]}}, {"type": "Feature", "properties": {"norad_id": 37392, "name": "INTELSAT 28 (IS-28)", "group": "intelsat", "lat": 0.9391093103132564, "lon": 128.7958869942142, "alt_km": 35798.36560091913, "timestamp": "2025-12-17T04:57:44.067643+00:00", "meta": {"OBJECT_NAME": "INTELSAT 28 (IS-28)", "OBJECT_ID": "2011-016A", "EPOCH": "2025-12-16T16:37:49.757664", "MEAN_MOTION": 1.00270952, "ECCENTRICITY": 0.00037105, "INCLINATION": 1.3345, "RA_OF_ASC_NODE": 85.0101, "ARG_OF_PERICENTER": 184.3932, "MEAN_ANOMALY": 33.9565, "EPHEMERIS_TYPE": 0, "CLASSIFICATION_TYPE": "U", "NORAD_CAT_ID": 37392, "ELEMENT_SET_NO": 999, "REV_AT_EPOCH": 5145, "BSTAR": 0, "MEAN_MOTION_DOT": -2.02e-06, "MEAN_MOTION_DDOT": 0}, "tle": {"line1": "1 37392U 11016A   25350.69293701 -.00000202  00000+0  00000+0 0  9998", "line2": "2 37392   1.3345  85.0101 0003710 184.3932  33.9565  1.00270952 51450"}}, "geometry": {"type": "Point", "coordinates": [128.7958869942142, 0.9391093103132564]}}]}